{
  "type": "FeatureCollection",
  "features": [
    {
      "type": "Feature",
      "properties": {
        "norad_id": 41581,
        "name": "INTELSAT 31 (IS-31)",
        "group": "intelsat",
        "lat": 0.00447747734426073,
        "lon": -19.799593948819734,
        "alt_km": 35792.43553562665,
        "timestamp": "2025-12-25T22:42:16.664449+00:00",
        "meta_object_name": "INTELSAT 31 (IS-31)",
        "meta_object_id": "2016-035A",
        "meta_epoch": "2025-12-23T19:31:44.703840",
        "meta_mean_motion": 1.00269658,
        "meta_eccentricity": 0.0001926,
        "meta_inclination": 0.0283,
        "meta_ra_of_asc_node": 262.055,
        "meta_arg_of_pericenter": 303.365,
        "meta_mean_anomaly": 85.0534,
        "meta_ephemeris_type": 0,
        "meta_classification_type": "U",
        "meta_norad_cat_id": 41581,
        "meta_element_set_no": 999,
        "meta_rev_at_epoch": 3492,
        "meta_bstar": 0,
        "meta_mean_motion_dot": -1.29e-06,
        "meta_mean_motion_ddot": 0,
        "tle_line1": "1 41581U 16035A   25357.81371185 -.00000129  00000+0  00000+0 0  9991",
        "tle_line2": "2 41581   0.0283 262.0550 0001926 303.3650  85.0534  1.00269658 34922"
      },
      "geometry": {
        "type": "Point",
        "coordinates": [
          -19.799593948819734,
          0.00447747734426073
        ]
      }
    },
    {
      "type": "Feature",
      "properties": {
        "norad_id": 41747,
        "name": "INTELSAT 36 (IS-36)",
        "group": "intelsat",
        "lat": 0.024156601228630135,
        "lon": 143.75172843082322,
        "alt_km": 35791.284093038936,
        "timestamp": "2025-12-25T22:42:16.664460+00:00",
        "meta_object_name": "INTELSAT 36 (IS-36)",
        "meta_object_id": "2016-053A",
        "meta_epoch": "2025-12-24T23:41:40.191072",
        "meta_mean_motion": 1.00271078,
        "meta_eccentricity": 0.00011962,
        "meta_inclination": 0.0114,
        "meta_ra_of_asc_node": 13.9545,
        "meta_arg_of_pericenter": 310.844,
        "meta_mean_anomaly": 192.8649,
        "meta_ephemeris_type": 0,
        "meta_classification_type": "U",
        "meta_norad_cat_id": 41747,
        "meta_element_set_no": 999,
        "meta_rev_at_epoch": 3420,
        "meta_bstar": 0,
        "meta_mean_motion_dot": -3e-08,
        "meta_mean_motion_ddot": 0,
        "tle_line1": "1 41747U 16053A   25358.98727073 -.00000003  00000+0  00000+0 0  9996",
        "tle_line2": "2 41747   0.0114  13.9545 0001196 310.8440 192.8649  1.00271078 34209"
      },
      "geometry": {
        "type": "Point",
        "coordinates": [
          143.75172843082322,
          0.024156601228630135
        ]
      }
    },
    {
      "type": "Feature",
      "properties": {
        "norad_id": 41945,
        "name": "INTELSAT 32E (IS-32E)",
        "group": "intelsat",
        "lat": -0.012277484493770308,
        "lon": 32.07961210075988,
        "alt_km": 35784.477236416125,
        "timestamp": "2025-12-25T22:42:16.664472+00:00",
        "meta_object_name": "INTELSAT 32E (IS-32E)",
        "meta_object_id": "2017-007B",
        "meta_epoch": "2025-12-25T09:26:14.207136",
        "meta_mean_motion": 1.00269163,
        "meta_eccentricity": 5.79e-05,
        "meta_inclination": 0.0256,
        "meta_ra_of_asc_node": 72.3331,
        "meta_arg_of_pericenter": 310.1957,
        "meta_mean_anomaly": 170.0068,
        "meta_ephemeris_type": 0,
        "meta_classification_type": "U",
        "meta_norad_cat_id": 41945,
        "meta_element_set_no": 999,
        "meta_rev_at_epoch": 3248,
        "meta_bstar": 0,
        "meta_mean_motion_dot": -2.48e-06,
        "meta_mean_motion_ddot": 0,
        "tle_line1": "1 41945U 17007B   25359.39321999 -.00000248  00000+0  00000+0 0  9990",
        "tle_line2": "2 41945   0.0256  72.3331 0000579 310.1957 170.0068  1.00269163 32481"
      },
      "geometry": {
        "type": "Point",
        "coordinates": [
          32.07961210075988,
          -0.012277484493770308
        ]
      }
    },
    {
      "type": "Feature",
      "properties": {
        "norad_id": 42818,
        "name": "INTELSAT 35E (IS-35E)",
        "group": "intelsat",
        "lat": 0.012882917425248122,
        "lon": 40.75879219017364,
        "alt_km": 35791.35705826338,
        "timestamp": "2025-12-25T22:42:16.664483+00:00",
        "meta_object_name": "INTELSAT 35E (IS-35E)",
        "meta_object_id": "2017-041A",
        "meta_epoch": "2025-12-24T19:47:02.663232",
        "meta_mean_motion": 1.00269135,
        "meta_eccentricity": 0.0001994,
        "meta_inclination": 0.0182,
        "meta_ra_of_asc_node": 26.5073,
        "meta_arg_of_pericenter": 252.5399,
        "meta_mean_anomaly": 76.7961,
        "meta_ephemeris_type": 0,
        "meta_classification_type": "U",
        "meta_norad_cat_id": 42818,
        "meta_element_set_no": 999,
        "meta_rev_at_epoch": 3106,
        "meta_bstar": 0,
        "meta_mean_motion_dot": -2.17e-06,
        "meta_mean_motion_ddot": 0,
        "tle_line1": "1 42818U 17041A   25358.82433638 -.00000217  00000+0  00000+0 0  9995",
        "tle_line2": "2 42818   0.0182  26.5073 0001994 252.5399  76.7961  1.00269135 31060"
      },
      "geometry": {
        "type": "Point",
        "coordinates": [
          40.75879219017364,
          0.012882917425248122
        ]
      }
    },
    {
      "type": "Feature",
      "properties": {
        "norad_id": 42950,
        "name": "INTELSAT 37E (IS-37E)",
        "group": "intelsat",
        "lat": 0.024093634056796813,
        "lon": 57.27855464959962,
        "alt_km": 35798.65677205561,
        "timestamp": "2025-12-25T22:42:16.664494+00:00",
        "meta_object_name": "INTELSAT 37E (IS-37E)",
        "meta_object_id": "2017-059A",
        "meta_epoch": "2025-12-25T09:33:13.538304",
        "meta_mean_motion": 1.00269779,
        "meta_eccentricity": 0.0003163,
        "meta_inclination": 0.0209,
        "meta_ra_of_asc_node": 25.8363,
        "meta_arg_of_pericenter": 237.6739,
        "meta_mean_anomaly": 315.9599,
        "meta_ephemeris_type": 0,
        "meta_classification_type": "U",
        "meta_norad_cat_id": 42950,
        "meta_element_set_no": 999,
        "meta_rev_at_epoch": 3032,
        "meta_bstar": 0,
        "meta_mean_motion_dot": 0,
        "meta_mean_motion_ddot": 0,
        "tle_line1": "1 42950U 17059A   25359.39807336  .00000000  00000+0  00000+0 0  9993",
        "tle_line2": "2 42950   0.0209  25.8363 0003163 237.6739 315.9599  1.00269779 30320"
      },
      "geometry": {
        "type": "Point",
        "coordinates": [
          57.27855464959962,
          0.024093634056796813
        ]
      }
    },
    {
      "type": "Feature",
      "properties": {
        "norad_id": 43632,
        "name": "AZERSPACE 2 (IS-38)",
        "group": "intelsat",
        "lat": 0.03603241555927931,
        "lon": 120.35737536892813,
        "alt_km": 35791.59269698232,
        "timestamp": "2025-12-25T22:42:16.664506+00:00",
        "meta_object_name": "AZERSPACE 2 (IS-38)",
        "meta_object_id": "2018-074A",
        "meta_epoch": "2025-12-25T14:59:23.620416",
        "meta_mean_motion": 1.00271088,
        "meta_eccentricity": 0.0001362,
        "meta_inclination": 0.0173,
        "meta_ra_of_asc_node": 17.3718,
        "meta_arg_of_pericenter": 261.2913,
        "meta_mean_anomaly": 85.6698,
        "meta_ephemeris_type": 0,
        "meta_classification_type": "U",
        "meta_norad_cat_id": 43632,
        "meta_element_set_no": 999,
        "meta_rev_at_epoch": 2670,
        "meta_bstar": 0,
        "meta_mean_motion_dot": 1.58e-06,
        "meta_mean_motion_ddot": 0,
        "tle_line1": "1 43632U 18074A   25359.62457894  .00000158  00000+0  00000+0 0  9999",
        "tle_line2": "2 43632   0.0173  17.3718 0001362 261.2913  85.6698  1.00271088 26708"
      },
      "geometry": {
        "type": "Point",
        "coordinates": [
          120.35737536892813,
          0.03603241555927931
        ]
      }
    },
    {
      "type": "Feature",
      "properties": {
        "norad_id": 43633,
        "name": "HORIZONS-3E",
        "group": "intelsat",
        "lat": 0.005858306621167233,
        "lon": -115.76584762623317,
        "alt_km": 35786.2743954655,
        "timestamp": "2025-12-25T22:42:16.664517+00:00",
        "meta_object_name": "HORIZONS-3E",
        "meta_object_id": "2018-074B",
        "meta_epoch": "2025-12-24T12:50:38.701824",
        "meta_mean_motion": 1.0026891,
        "meta_eccentricity": 6.503e-05,
        "meta_inclination": 0.0125,
        "meta_ra_of_asc_node": 213.101,
        "meta_arg_of_pericenter": 109.3498,
        "meta_mean_anomaly": 132.5125,
        "meta_ephemeris_type": 0,
        "meta_classification_type": "U",
        "meta_norad_cat_id": 43633,
        "meta_element_set_no": 999,
        "meta_rev_at_epoch": 2659,
        "meta_bstar": 0,
        "meta_mean_motion_dot": 0,
        "meta_mean_motion_ddot": 0,
        "tle_line1": "1 43633U 18074B   25358.53517016  .00000000  00000+0  00000+0 0  9998",
        "tle_line2": "2 43633   0.0125 213.1010 0000650 109.3498 132.5125  1.00268910 26590"
      },
      "geometry": {
        "type": "Point",
        "coordinates": [
          -115.76584762623317,
          0.005858306621167233
        ]
      }
    }
  ]
}